[{"OBJECT_NAME":"KUIPER-00221","OBJECT_ID":"2025-301Q","EPOCH":"2026-03-09T09:45:11.787552","MEAN_MOTION":14.79940595,"ECCENTRICITY":8.245e-5,"INCLINATION":51.9015,"RA_OF_ASC_NODE":81.8575,"ARG_OF_PERICENTER":69.4274,"MEAN_ANOMALY":290.6777,"EPHEMERIS_TYPE":0,"CLASSIFICATION_TYPE":"U","NORAD_CAT_ID":67147,"ELEMENT_SET_NO":999,"REV_AT_EPOCH":1348,"BSTAR":0.00058160032,"MEAN_MOTION_DOT":4.216e-5,"MEAN_MOTION_DDOT":0},{"OBJECT_NAME":"FENGYUN 1C DEB","OBJECT_ID":"1999-025HZ","EPOCH":"2026-03-09T16:41:13.331616","MEAN_MOTION":14.78396279,"ECCENTRICITY":0.00151144,"INCLINATION":99.0743,"RA_OF_ASC_NODE":108.3738,"ARG_OF_PERICENTER":297.9411,"MEAN_ANOMALY":189.0746,"EPHEMERIS_TYPE":0,"CLASSIFICATION_TYPE":"U","NORAD_CAT_ID":29927,"ELEMENT_SET_NO":999,"REV_AT_EPOCH":99930,"BSTAR":0.002279364,"MEAN_MOTION_DOT":0.00016605,"MEAN_MOTION_DDOT":0}]
